ONEWEB-0379             
1 49305U 21090AC  24296.33724242 -.00000035  00000+0 -12759-3 0  9999
2 49305  87.9015  49.5802 0001780 102.7481 257.3848 13.14501700148361
ONEWEB-0380             
1 49306U 21090AD  24296.44162290 -.00000068  00000+0 -20157-3 0  9998
2 49306  87.9158  64.8376 0001548  95.4673 264.6637 13.19721443146929
ONEWEB-0381             
1 49307U 21090AE  24296.36154444  .00000214  00000+0  49358-3 0  9997
2 49307  87.9285  34.3512 0001817 104.1688 255.9647 13.20771263150250
ONEWEB-0382             
1 49308U 21090AF  24296.34889775  .00001069  00000+0  25962-2 0  9991
2 49308  87.9289  34.3506 0001800 122.7331 237.3976 13.20767254150244
ONEWEB-0383             
1 49309U 21090AG  24296.33088039 -.00000003  00000+0 -42614-4 0  9999
2 49309  87.9013  49.5670 0001757 109.3529 250.7790 13.14505518148393
ONEWEB-0384             
1 49310U 21090AH  24296.34575155 -.00000143  00000+0 -38353-3 0  9991
2 49310  87.9298  34.3656 0001748 119.8164 240.3144 13.20772631150252
ONEWEB-0385             
1 49311U 21090AJ  24296.34103063  .00000002  00000+0 -27216-4 0  9997
2 49311  87.9296  34.3669 0001611 111.5518 248.5787 13.20771558150223
ONEWEB-0386             
1 49312U 21090AK  24296.35839348  .00000135  00000+0  29970-3 0  9995
2 49312  87.9285  34.3495 0001637 111.5280 248.6028 13.20772518150241
